ISS OBJECT XX           
1 66911U 98067XX  26070.16517619  .00301388  00000+0  18152-2 0  9995
2 66911  51.6235  56.4689 0007069  92.6185 267.5624 15.76233813 15421
ISS OBJECT XY           
1 66912U 98067XY  26069.98750332  .00107127  00000+0  11051-2 0  9991
2 66912  51.6270  60.5710 0003215  94.9911 265.1451 15.63960594 15356
KNACKSAT-2              
1 67683U 98067XZ  26070.27309058  .00043008  00000+0  70523-3 0  9993
2 67683  51.6311  63.9810 0009472 191.4350 168.6426 15.51967265  5039
GXIBA-1                 
1 67684U 98067YA  26070.17894451  .00085374  00000+0  12587-2 0  9996
2 67684  51.6309  64.1034 0011100 180.7546 179.3430 15.54589143  5028
CORAL                   
1 67685U 98067YB  26070.20390385  .00048395  00000+0  78082-3 0  9993
2 67685  51.6308  64.2697 0011501 187.8017 172.2796 15.52342723  5026
ISS OBJECT YC           
1 67686U 98067YC  26070.26219730  .00059157  00000+0  93318-3 0  9991
2 67686  51.6312  63.9104 0008059 156.2527 203.8836 15.52919663  5031
LEOPARD                 
1 67687U 98067YD  26070.20618503  .00045624  00000+0  74305-3 0  9996
2 67687  51.6320  64.2868 0007944 159.2557 200.8756 15.52145288  4941
ISS OBJECT YE           
1 67688U 98067YE  26070.26495424  .00056411  00000+0  89905-3 0  9996
2 67688  51.6312  63.9293 0007987 156.8543 203.2808 15.52655260  4958
CREW DRAGON 12          
1 67796U 26031A   26070.19118651  .00009215  00000+0  17770-3 0  9995
2 67796  51.6325  64.9326 0007932 179.9008 180.1983 15.48575655556450
